{
  "norad_id": 47734,
  "name": "STARLINK-2144",
  "history": [
    {
      "epoch": "2026-05-05T17:58:38.490240Z",
      "apogee_km": 471.63330949651026,
      "perigee_km": 469.8074041251848,
      "latitude_deg": -3.268207256689192e-05,
      "longitude_deg": 165.3213217347916,
      "height_km": 471.1134114802297,
      "semi_major_axis_km": 6848.857356810848,
      "eccentricity": 0.0001333,
      "inclination_deg": 53.1604,
      "raan_deg": 298.6013,
      "arg_perigee_deg": 56.35,
      "mean_anomaly_deg": 303.7628,
      "mean_motion_rev_day": 15.31706588
    },
    {
      "epoch": "2026-05-06T11:12:11.970144Z",
      "apogee_km": 471.4859338467959,
      "perigee_km": 469.90878427059306,
      "latitude_deg": 1.071418652301514e-05,
      "longitude_deg": -97.1141935939438,
      "height_km": 471.48036858595134,
      "semi_major_axis_km": 6848.834359058695,
      "eccentricity": 0.00011514,
      "inclination_deg": 53.1607,
      "raan_deg": 295.2627,
      "arg_perigee_deg": 81.5476,
      "mean_anomaly_deg": 278.5656,
      "mean_motion_rev_day": 15.31714303
    },
    {
      "epoch": "2026-05-07T10:41:36.244896Z",
      "apogee_km": 471.48367680457704,
      "perigee_km": 469.94679436291153,
      "latitude_deg": -4.3041009298861414e-05,
      "longitude_deg": -94.98588517156817,
      "height_km": 471.46674724360827,
      "semi_major_axis_km": 6848.852235583744,
      "eccentricity": 0.0001122,
      "inclination_deg": 53.1611,
      "raan_deg": 290.7069,
      "arg_perigee_deg": 78.9329,
      "mean_anomaly_deg": 281.1798,
      "mean_motion_rev_day": 15.31708306
    }
  ]
}